NORAD_CAT_ID,OBJECT_NAME,OBJECT_TYPE,EPOCH,MEAN_MOTION,ECCENTRICITY,INCLINATION,RA_OF_ASC_NODE,ARG_OF_PERICENTER,MEAN_ANOMALY,BSTAR,MEAN_MOTION_DOT,MEAN_MOTION_DDOT,TLE_LINE0,TLE_LINE1,TLE_LINE2,SEMIMAJOR_AXIS,PERIOD,APOGEE,PERIGEE,DECAYED
53629.0,STARLINK-4602,PAYLOAD,2024-01-31 11:09:01,15.08841116,0.0001895,53.2179,82.5002,68.7304,291.389,2.892e-05,1.72e-06,0.0,0 STARLINK-4602,1 53629U 22104AT  24031.46460103  .00000172  00000-0  28920-4 0  9993,2 53629  53.2179  82.5002 0001895  68.7304 291.3890 15.08841116 79094,6917.877,95.437,541.053,538.431,0.0
53629.0,STARLINK-4602,PAYLOAD,2024-01-31 12:44:24,15.0884403,0.0001835,53.2183,82.1969,73.0492,287.0701,1.626e-05,-2.9e-07,0.0,0 STARLINK-4602,1 53629U 22104AT  24031.53083816 -.00000029  00000-0  16260-4 0  9999,2 53629  53.2183  82.1969 0001835  73.0492 287.0701 15.08844030 79796,6917.868,95.437,541.002,538.464,0.0
53629.0,STARLINK-4602,PAYLOAD,2024-02-01 12:35:11,15.08847548,0.0001788,53.2179,77.7352,78.1745,281.9447,-3.8247e-05,-8.97e-06,0.0,0 STARLINK-4602,1 53629U 22104AT  24032.52443662 -.00000897  00000-0 -38247-4 0  9991,2 53629  53.2179  77.7352 0001788  78.1745 281.9447 15.08847548 79945,6917.857,95.437,540.959,538.485,0.0
53629.0,STARLINK-4602,PAYLOAD,2024-02-02 12:25:58,15.08841989,0.0001681,53.2175,73.2748,82.4889,277.6294,6.1293e-05,6.88e-06,0.0,0 STARLINK-4602,1 53629U 22104AT  24033.51803672  .00000688  00000-0  61293-4 0  9995,2 53629  53.2175  73.2748 0001681  82.4889 277.6294 15.08841989 80093,6917.874,95.437,540.902,538.576,0.0
53629.0,STARLINK-4602,PAYLOAD,2024-02-03 02:44:26,15.08837309,0.0001738,53.218,70.5984,89.8508,270.2683,2.2027e-05,6.2e-07,0.0,0 STARLINK-4602,1 53629U 22104AT  24034.11420118  .00000062  00000-0  22027-4 0  9990,2 53629  53.2180  70.5984 0001738  89.8508 270.2683 15.08837309 79497,6917.889,95.438,540.956,538.551,0.0
53629.0,STARLINK-4602,PAYLOAD,2024-02-03 07:30:36,15.08839006,0.0001678,53.2173,69.7064,93.9817,266.1367,3.8217e-05,3.2e-06,0.0,0 STARLINK-4602,1 53629U 22104AT  24034.31291981  .00000320  00000-0  38217-4 0  9991,2 53629  53.2173  69.7064 0001678  93.9817 266.1367 15.08839006 80211,6917.883,95.438,540.909,538.588,0.0
53629.0,STARLINK-4602,PAYLOAD,2024-02-03 18:38:18,15.088398,0.000168,53.2173,67.6255,84.7337,275.3847,3.2684e-05,2.32e-06,0.0,0 STARLINK-4602,1 53629U 22104AT  24034.77660022  .00000232  00000-0  32684-4 0  9991,2 53629  53.2173  67.6255 0001680  84.7337 275.3847 15.08839800 80282,6917.881,95.438,540.908,538.584,0.0
53629.0,STARLINK-4602,PAYLOAD,2024-02-04 08:56:47,15.08807607,0.0001844,53.2176,64.9498,97.7587,262.3614,0.00043784,6.681e-05,0.0,0 STARLINK-4602,1 53629U 22104AT  24035.37276785  .00006681  00000-0  43784-3 0  9993,2 53629  53.2176  64.9498 0001844  97.7587 262.3614 15.08807607 79687,6917.979,95.44,541.12,538.569,0.0
53629.0,STARLINK-4602,PAYLOAD,2024-02-05 11:58:19,15.08840732,0.0001599,53.2174,59.8978,94.0816,266.0359,8.2656e-05,1.028e-05,0.0,0 STARLINK-4602,1 53629U 22104AT  24036.49884140  .00001028  00000-0  82656-4 0  9999,2 53629  53.2174  59.8978 0001599  94.0816 266.0359 15.08840732 79855,6917.878,95.438,540.849,538.637,0.0
53629.0,STARLINK-4602,PAYLOAD,2024-02-06 10:13:43,15.08847774,0.0001564,53.2172,55.7333,92.6785,267.4386,9.8843e-05,1.286e-05,0.0,0 STARLINK-4602,1 53629U 22104AT  24037.42619834  .00001286  00000-0  98843-4 0  9990,2 53629  53.2172  55.7333 0001564  92.6785 267.4386 15.08847774 80685,6917.857,95.437,540.804,538.64,0.0
53629.0,STARLINK-4602,PAYLOAD,2024-02-07 00:32:12,15.08841282,0.0001703,53.2181,53.0581,94.2205,265.8981,2.3887e-05,9.2e-07,0.0,0 STARLINK-4602,1 53629U 22104AT  24038.02236630  .00000092  00000-0  23887-4 0  9996,2 53629  53.2181  53.0581 0001703  94.2205 265.8981 15.08841282 80086,6917.876,95.437,540.92,538.563,0.0
53629.0,STARLINK-4602,PAYLOAD,2024-02-07 08:29:07,15.08842406,0.0001585,53.2178,51.5708,82.3114,277.8058,4.8451e-05,4.83e-06,0.0,0 STARLINK-4602,1 53629U 22104AT  24038.35356479  .00000483  00000-0  48451-4 0  9994,2 53629  53.2178  51.5708 0001585  82.3114 277.8058 15.08842406 80820,6917.873,95.437,540.835,538.642,0.0
53629.0,STARLINK-4602,PAYLOAD,2024-02-07 18:01:27,15.08838593,0.0001616,53.2179,49.7866,81.658,278.4595,2.4166e-05,9.7e-07,0.0,0 STARLINK-4602,1 53629U 22104AT  24038.75100832  .00000097  00000-0  24166-4 0  9996,2 53629  53.2179  49.7866 0001616  81.6580 278.4595 15.08838593 80880,6917.885,95.438,540.868,538.632,0.0
53629.0,STARLINK-4602,PAYLOAD,2024-02-08 00:22:59,15.08834886,0.0001768,53.2185,48.599,87.9224,272.1971,4.6117e-05,4.46e-06,0.0,0 STARLINK-4602,1 53629U 22104AT  24039.01597111  .00000446  00000-0  46117-4 0  9994,2 53629  53.2185  48.5990 0001768  87.9224 272.1971 15.08834886 80233,6917.896,95.438,540.984,538.538,0.0
53629.0,STARLINK-4602,PAYLOAD,2024-02-08 06:44:32,15.08842715,0.0001461,53.2174,47.4076,91.3801,268.7359,-1.3213e-05,-4.98e-06,0.0,0 STARLINK-4602,1 53629U 22104AT  24039.28092795 -.00000498  00000-0 -13213-4 0  9991,2 53629  53.2174  47.4076 0001461  91.3801 268.7359 15.08842715 80965,6917.872,95.437,540.748,538.726,0.0
53629.0,STARLINK-4602,PAYLOAD,2024-02-09 03:24:32,15.08841392,0.0001494,53.2172,43.5419,87.2738,272.8425,7.4832e-05,9.03e-06,0.0,0 STARLINK-4602,1 53629U 22104AT  24040.14204632  .00000903  00000-0  74832-4 0  9996,2 53629  53.2172  43.5419 0001494  87.2738 272.8425 15.08841392 80409,6917.876,95.437,540.775,538.708,0.0
53629.0,STARLINK-4602,PAYLOAD,2024-02-09 09:46:04,15.08849951,0.0001472,53.2165,42.351,92.4321,267.684,0.00012857,1.759e-05,0.0,0 STARLINK-4602,1 53629U 22104AT  24040.40699892  .00001759  00000-0  12857-3 0  9999,2 53629  53.2165  42.3510 0001472  92.4321 267.6840 15.08849951 80448,6917.85,95.437,540.733,538.697,0.0
53629.0,STARLINK-4602,PAYLOAD,2024-02-10 03:15:20,15.08833231,0.0001441,53.2165,39.082,99.1977,260.9178,3.874e-05,3.29e-06,0.0,0 STARLINK-4602,1 53629U 22104AT  24041.13565381  .00000329  00000-0  38740-4 0  9997,2 53629  53.2165  39.0820 0001441  99.1977 260.9178 15.08833231 80558,6917.901,95.438,540.763,538.769,0.0
53629.0,STARLINK-4602,PAYLOAD,2024-02-10 06:26:06,15.08839055,0.000164,53.2185,38.4873,100.6746,259.4431,5.1856e-05,5.37e-06,0.0,0 STARLINK-4602,1 53629U 22104AT  24041.26813118  .00000537  00000-0  51856-4 0  9999,2 53629  53.2185  38.4873 0001640 100.6746 259.4431 15.08839055 81268,6917.883,95.438,540.883,538.614,0.0
53629.0,STARLINK-4602,PAYLOAD,2024-02-11 03:06:07,15.08844645,0.0001499,53.2182,34.6215,96.3937,263.7226,2.8794e-05,1.7e-06,0.0,0 STARLINK-4602,1 53629U 22104AT  24042.12924997  .00000170  00000-0  28794-4 0  9991,2 53629  53.2182  34.6215 0001499  96.3937 263.7226 15.08844645 80707,6917.866,95.437,540.768,538.694,0.0
53629.0,STARLINK-4602,PAYLOAD,2024-02-11 06:16:53,15.08845678,0.0001636,53.2189,34.0277,106.1677,253.9495,4.7314e-05,4.65e-06,0.0,0 STARLINK-4602,1 53629U 22104AT  24042.26172849  .00000465  00000-0  47314-4 0  9993,2 53629  53.2189  34.0277 0001636 106.1677 253.9495 15.08845678 81415,6917.863,95.437,540.86,538.596,0.0
53629.0,STARLINK-4602,PAYLOAD,2024-02-12 06:07:40,15.08851185,0.0001737,53.2185,29.5643,108.9982,251.1198,0.00013964,1.936e-05,0.0,0 STARLINK-4602,1 53629U 22104AT  24043.25532429  .00001936  00000-0  13964-3 0  9994,2 53629  53.2185  29.5643 0001737 108.9982 251.1198 15.08851185 80877,6917.846,95.437,540.913,538.51,0.0
53629.0,STARLINK-4602,PAYLOAD,2024-02-13 02:47:41,15.08836875,0.0001698,53.2184,25.7013,95.9798,264.1388,-8.2157e-05,-1.595e-05,0.0,0 STARLINK-4602,1 53629U 22104AT  24044.11645183 -.00001595  00000-0 -82157-4 0  9996,2 53629  53.2184  25.7013 0001698  95.9798 264.1388 15.08836875 81001,6917.89,95.438,540.93,538.58,0.0
53629.0,STARLINK-4602,PAYLOAD,2024-02-13 07:33:51,15.08840341,0.0001507,53.2188,24.8083,90.7092,269.4073,3.8336e-05,3.22e-06,0.0,0 STARLINK-4602,1 53629U 22104AT  24044.31517503  .00000322  00000-0  38336-4 0  9997,2 53629  53.2188  24.8083 0001507  90.7092 269.4073 15.08840341 81722,6917.879,95.438,540.787,538.702,0.0
53629.0,STARLINK-4602,PAYLOAD,2024-02-13 15:30:47,15.08836479,0.0001534,53.219,23.3169,85.5644,274.5523,1.2827e-05,-8.4e-07,0.0,0 STARLINK-4602,1 53629U 22104AT  24044.64637901 -.00000084  00000-0  12827-4 0  9991,2 53629  53.2190  23.3169 0001534  85.5644 274.5523 15.08836479 81778,6917.891,95.438,540.817,538.695,0.0
53629.0,STARLINK-4602,PAYLOAD,2024-02-14 04:13:51,15.08849028,0.0001487,53.2181,20.9404,113.7554,246.3594,-1.2666e-05,-4.9e-06,0.0,0 STARLINK-4602,1 53629U 22104AT  24045.17629177 -.00000490  00000-0 -12666-4 0  9999,2 53629  53.2181  20.9404 0001487 113.7554 246.3594 15.08849028 81166,6917.853,95.437,540.746,538.689,0.0
53629.0,STARLINK-4602,PAYLOAD,2024-02-14 05:49:14,15.08844804,0.0001453,53.218,20.641,96.4056,263.7102,9.7996e-06,-1.32e-06,0.0,0 STARLINK-4602,1 53629U 22104AT  24045.24252901 -.00000132  00000-0  97996-5 0  9996,2 53629  53.2180  20.6410 0001453  96.4056 263.7102 15.08844804 81868,6917.866,95.437,540.736,538.726,0.0
53629.0,STARLINK-4602,PAYLOAD,2024-02-14 21:43:06,15.08835323,0.0001716,53.2175,17.6728,80.2966,279.822,8.966e-05,1.139e-05,0.0,0 STARLINK-4602,1 53629U 22104AT  24045.90493968  .00001139  00000-0  89660-4 0  9994,2 53629  53.2175  17.6728 0001716  80.2966 279.8220 15.08835323 81969,6917.895,95.438,540.947,538.573,0.0
53629.0,STARLINK-4602,PAYLOAD,2024-02-15 04:04:39,15.08831667,0.0001225,53.2172,16.4833,81.6737,278.4394,3.0184e-05,1.92e-06,0.0,0 STARLINK-4602,1 53629U 22104AT  24046.16990181  .00000192  00000-0  30184-4 0  9997,2 53629  53.2172  16.4833 0001225  81.6737 278.4394 15.08831667 81319,6917.906,95.438,540.618,538.923,0.0
53629.0,STARLINK-4602,PAYLOAD,2024-02-15 07:15:25,15.08843364,0.0001504,53.2186,15.8852,91.8281,268.2883,0.00023389,3.437e-05,0.0,0 STARLINK-4602,1 53629U 22104AT  24046.30237629  .00003437  00000-0  23389-3 0  9997,2 53629  53.2186  15.8852 0001504  91.8281 268.2883 15.08843364 81334,6917.87,95.437,540.776,538.695,0.0
